CALSPHERE 1             
1 00900U 64063C   24198.60483233  .00000882  00000+0  91129-3 0  9993
2 00900  90.2026  56.0094 0023509 251.8669 162.2644 13.75127682975075
CALSPHERE 2             
1 00902U 64063E   24198.61494031  .00000080  00000+0  10622-3 0  9993
2 00902  90.2173  59.6422 0020462 100.0592 318.3389 13.52804841761548
LCS 1                   
1 01361U 65034C   24198.38461010  .00000004  00000+0 -52242-3 0  9998
2 01361  32.1452  40.9708 0006585 147.9017 212.1882  9.89305678140487
TEMPSAT 1               
1 01512U 65065E   24198.58567472  .00000060  00000+0  10154-3 0  9998
2 01512  89.9529 213.9511 0071418  56.9912  62.8806 13.33519796866678
CALSPHERE 4A            
1 01520U 65065H   24198.54131275  .00000126  00000+0  22759-3 0  9998
2 01520  89.9472 127.9019 0067090 281.3045 140.9374 13.36079946869147
OPS 5712 (P/L 160)      
1 02826U 67053A   24198.60225322  .00010811  00000+0  22587-2 0  9991
2 02826  69.9253 294.8669 0004279 336.8130  23.2815 14.60032655963252
OPS 5712 (P/L 153)      
1 02874U 67053H   24198.38321033  .00000123  00000+0  12693-3 0  9998
2 02874  69.9725 177.2019 0006727   4.8656 355.2514 13.96602547908925
SURCAL 150B             
1 02909U 67053J   24198.47887639  .00021031  00000+0  26196-2 0  9999
2 02909  69.9386 238.1135 0001901 327.0605  33.0426 14.82454879975371
RIGIDSPHERE 2 (LCS 4)   
1 05398U 71067E   24198.58944143  .00001941  00000+0  64908-3 0  9992
2 05398  87.6282 173.0876 0063055  37.0176 323.5346 14.35877030773264
COSMOS 2493 (SKRL-756 1)
1 39490U 13078A   24198.53761013  .00004685  00000+0  42984-3 0  9996
2 39490  82.4143 223.2211 0017082  87.3422 272.9754 14.94568863572998
COSMOS 2494 (SKRL-756 2)
1 39491U 13078B   24198.55839775  .00004716  00000+0  41176-3 0  9997
2 39491  82.4140 215.1136 0020588  59.0203 301.3037 14.96458725573764